DUCHIFAT-1              
1 40021U 14033M   26131.41895469  .00055146  00000+0  72925-3 0  9995
2 40021  98.0508 185.6247 0005703 190.8241 169.2891 15.58150241650012
NANOSATC-BR1            
1 40024U 14033Q   26131.53536653  .00009937  00000+0  34204-3 0  9993
2 40024  98.0758 160.7076 0002025 334.6480  25.4659 15.30286186648372
QB50P1                  
1 40025U 14033R   26131.49884577  .00005562  00000+0  27960-3 0  9991
2 40025  98.0984 140.0889 0008530   3.8337 356.2959 15.17684156647461
DTUSAT-2                
1 40030U 14033W   26131.44340390  .00004299  00000+0  23717-3 0  9994
2 40030  98.0870 126.8544 0008068  14.4091 345.7368 15.14532807647124
QB50P2                  
1 40032U 14033Y   26131.44113331  .00004121  00000+0  22665-3 0  9994
2 40032  98.0758 126.0504 0005901 309.5407  50.5301 15.14684349647106
PERSEUS-M1              
1 40039U 14033AF  26131.57266495  .00001129  00000+0  10728-3 0  9997
2 40039  97.9625  75.1123 0012873  62.6040 297.6488 14.95504792645166
POLYITAN-1              
1 40042U 14033AJ  26131.48912233  .00010919  00000+0  35618-3 0  9991
2 40042  98.0977 154.3150 0005360 273.2288  86.8338 15.31985615647970
TIGRISAT                
1 40043U 14033AK  26131.39478407  .00001502  00000+0  17873-3 0  9993
2 40043  97.7788 282.2635 0049145 193.7776 166.2101 14.85002615640166
CANX-4                  
1 40055U 14034C   26131.20080173  .00000545  00000+0  77320-4 0  9996
2 40055  98.3173   5.1488 0013818 126.4174 233.8314 14.81195001639056
CANX-5                  
1 40056U 14034D   26131.19966159  .00000537  00000+0  76211-4 0  9991
2 40056  98.3174   5.1889 0013811 126.6488 233.5995 14.81211971629861
GONETS-M 10             
1 40063U 14036C   26131.60690596  .00000026  00000+0  11550-3 0  9993
2 40063  82.5114 330.4030 0021125 220.4253 139.5258 12.42944491537703
METEOR-M 2              
1 40069U 14037A   26131.61301796  .00000081  00000+0  56456-4 0  9998
2 40069  98.5099 108.6517 0006457 133.7105 226.4609 14.21451585614120
DX1                     
1 40071U 14037C   26131.62590429  .00000842  00000+0  94123-4 0  9993
2 40071  98.3841  91.1185 0008038  39.9131 320.2674 14.89867329640660
UKUBE-1                 
1 40074U 14037F   26130.93999816  .00005489  00000+0  31571-3 0  9991
2 40074  98.4249 130.3192 0000519  43.5376 316.5894 15.12954494642928
GAOFEN-2                
1 40118U 14049A   26131.62176188  .00000874  00000+0  12005-3 0  9993
2 40118  98.0125 195.8607 0007419   3.8032 356.3235 14.80862435633824
BRITE-PL2 (HEWELIUSZ)   
1 40119U 14049B   26131.28149233  .00000908  00000+0  89657-4 0  9993
2 40119  97.9056 243.0096 0012984 228.2405 131.7706 14.94454349635932
CBERS 4                 
1 40336U 14079A   26131.65265791  .00000083  00000+0  43680-4 0  9996
2 40336  98.3554 189.6257 0001945 104.5578 255.5824 14.35498981598712
SMAP                    
1 40376U 15003A   26131.56699026  .00000269  00000+0  61008-4 0  9990
2 40376  98.1287 139.1792 0001433  69.3983 290.7373 14.63406075602261
GONETS-M 11             
1 40552U 15020A   26131.62342586  .00000114  00000+0  75385-3 0  9999
2 40552  82.4872  53.7708 0017383  81.0473 279.2574 12.42876113504194
GONETS-M 12             
1 40553U 15020B   26131.59733586  .00000202  00000+0  13829-2 0  9992
2 40553  82.4905  54.9013 0016412  66.8783 293.4025 12.42890738504188
GONETS-M 13             
1 40554U 15020C   26131.57019986  .00000137  00000+0  91803-3 0  9998
2 40554  82.4869  53.5440 0014966  52.9926 307.2520 12.42869323504151
DMC3-FM1                
1 40715U 15032A   26131.56744679 -.00000131  00000+0 -91503-5 0  9998
2 40715  97.6511 358.1697 0005709 159.0672 201.0778 14.85694008584476
DMC3-FM2                
1 40716U 15032B   26131.58962453  .00000530  00000+0  66976-4 0  9999
2 40716  97.6566 359.7397 0006136 165.1945 194.9451 14.85701201584479
DMC3-FM3                
1 40717U 15032C   26131.61271500  .00000485  00000+0  61796-4 0  9994
2 40717  97.6620   1.4918 0005361 162.0604 198.0802 14.85701875584481
CARBONITE 1 (CBNT-1)    
1 40718U 15032D   26131.62552035  .00000507  00000+0  67765-4 0  9998
2 40718  97.6506 311.2292 0015816  57.6452 302.6291 14.83472202583928
LILACSAT-2              
1 40908U 15049K   26131.62200725  .00011386  00000+0  20304-3 0  9997
2 40908  97.4701 167.1004 0007752  41.5127 318.6712 15.50226394590088
