OBJECT_NAME,OBJECT_ID,EPOCH,MEAN_MOTION,ECCENTRICITY,INCLINATION,RA_OF_ASC_NODE,ARG_OF_PERICENTER,MEAN_ANOMALY,EPHEMERIS_TYPE,CLASSIFICATION_TYPE,NORAD_CAT_ID,ELEMENT_SET_NO,REV_AT_EPOCH,BSTAR,MEAN_MOTION_DOT,MEAN_MOTION_DDOT
DUCHIFAT-1,2014-033M,2026-05-11T10:03:17.685216,15.58150241,.00057031,98.0508,185.6247,190.8241,169.2891,0,U,40021,999,65001,.72925499E-3,.55146E-3,0
NANOSATC-BR1,2014-033Q,2026-05-11T12:50:55.668192,15.30286186,.00020259,98.0758,160.7076,334.6480,25.4659,0,U,40024,999,64837,.34204122E-3,.9937E-4,0
QB50P1,2014-033R,2026-05-11T11:58:20.274528,15.17684156,.00085303,98.0984,140.0889,3.8337,356.2959,0,U,40025,999,64746,.27959895E-3,.5562E-4,0
DTUSAT-2,2014-033W,2026-05-11T10:38:30.096960,15.14532807,.0008068,98.0870,126.8544,14.4091,345.7368,0,U,40030,999,64712,.23717194E-3,.4299E-4,0
QB50P2,2014-033Y,2026-05-11T10:35:13.917984,15.14684349,.00059015,98.0758,126.0504,309.5407,50.5301,0,U,40032,999,64710,.2266545E-3,.4121E-4,0
PERSEUS-M1,2014-033AF,2026-05-11T13:44:38.251680,14.95504792,.00128739,97.9625,75.1123,62.6040,297.6488,0,U,40039,999,64516,.10728497E-3,.1129E-4,0
POLYITAN-1,2014-033AJ,2026-05-11T11:44:20.169312,15.31985615,.00053602,98.0977,154.3150,273.2288,86.8338,0,U,40042,999,64797,.35617692E-3,.10919E-3,0
TIGRISAT,2014-033AK,2026-05-11T09:28:29.343648,14.85002615,.00491456,97.7788,282.2635,193.7776,166.2101,0,U,40043,999,64016,.17873447E-3,.1502E-4,0
CANX-4,2014-034C,2026-05-11T04:49:09.269472,14.81195001,.00138187,98.3173,5.1488,126.4174,233.8314,0,U,40055,999,63905,.77319793E-4,.545E-5,0
CANX-5,2014-034D,2026-05-11T04:47:30.761376,14.81211971,.00138114,98.3174,5.1889,126.6488,233.5995,0,U,40056,999,62986,.76210815E-4,.537E-5,0
GONETS-M 10,2014-036C,2026-05-11T14:33:56.674944,12.42944491,.00211258,82.5114,330.4030,220.4253,139.5258,0,U,40063,999,53770,.11550115E-3,.26E-6,0
METEOR-M 2,2014-037A,2026-05-11T14:42:44.751744,14.21451585,.00064575,98.5099,108.6517,133.7105,226.4609,0,U,40069,999,61412,.56455988E-4,.81E-6,0
DX1,2014-037C,2026-05-11T15:01:18.130656,14.89867329,.00080387,98.3841,91.1185,39.9131,320.2674,0,U,40071,999,64066,.94123325E-4,.842E-5,0
UKUBE-1,2014-037F,2026-05-10T22:33:35.841024,15.12954494,.00005199,98.4249,130.3192,43.5376,316.5894,0,U,40074,999,64292,.31570723E-3,.5489E-4,0
GAOFEN-2,2014-049A,2026-05-11T14:55:20.226432,14.80862435,.00074194,98.0125,195.8607,3.8032,356.3235,0,U,40118,999,63382,.1200458E-3,.874E-5,0
BRITE-PL2 (HEWELIUSZ),2014-049B,2026-05-11T06:45:20.937312,14.94454349,.00129842,97.9056,243.0096,228.2405,131.7706,0,U,40119,999,63593,.89656935E-4,.908E-5,0
CBERS 4,2014-079A,2026-05-11T15:39:49.643424,14.35498981,.00019455,98.3554,189.6257,104.5578,255.5824,0,U,40336,999,59871,.43679703E-4,.83E-6,0
SMAP,2015-003A,2026-05-11T13:36:27.958464,14.63406075,.00014339,98.1287,139.1792,69.3983,290.7373,0,U,40376,999,60226,.61008278E-4,.269E-5,0
GONETS-M 11,2015-020A,2026-05-11T14:57:43.994304,12.42876113,.00173833,82.4872,53.7708,81.0473,279.2574,0,U,40552,999,50419,.75384869E-3,.114E-5,0
GONETS-M 12,2015-020B,2026-05-11T14:20:09.818304,12.42890738,.00164121,82.4905,54.9013,66.8783,293.4025,0,U,40553,999,50418,.13829109E-2,.202E-5,0
GONETS-M 13,2015-020C,2026-05-11T13:41:05.267904,12.42869323,.00149664,82.4869,53.5440,52.9926,307.2520,0,U,40554,999,50415,.91802951E-3,.137E-5,0
DMC3-FM1,2015-032A,2026-05-11T13:37:07.402656,14.85694008,.00057095,97.6511,358.1697,159.0672,201.0778,0,U,40715,999,58447,-.9150265E-5,-.131E-5,0
DMC3-FM2,2015-032B,2026-05-11T14:09:03.559392,14.85701201,.0006136,97.6566,359.7397,165.1945,194.9451,0,U,40716,999,58447,.66976218E-4,.53E-5,0
DMC3-FM3,2015-032C,2026-05-11T14:42:18.576000,14.85701875,.00053612,97.6620,1.4918,162.0604,198.0802,0,U,40717,999,58448,.61795605E-4,.485E-5,0
CARBONITE 1 (CBNT-1),2015-032D,2026-05-11T15:00:44.958240,14.83472202,.00158161,97.6506,311.2292,57.6452,302.6291,0,U,40718,999,58392,.67765188E-4,.507E-5,0
LILACSAT-2,2015-049K,2026-05-11T14:55:41.426400,15.50226394,.00077521,97.4701,167.1004,41.5127,318.6712,0,U,40908,999,59008,.20304077E-3,.11386E-3,0
